{"type": "FeatureCollection", "features": [ {"type": "Feature", "properties": {"norad_id": 33917, "name": "COSMOS 2251 DEB", "group": "cosmos-2251-debris", "lat": 10.618701762958743, "lon": -59.851031720193056, "alt_km": 858.7978595502273, "timestamp": "2025-12-12T05:47:29.164402+00:00", "meta": {"OBJECT_NAME": "COSMOS 2251 DEB", "OBJECT_ID": "1993-036DW", "EPOCH": "2025-12-11T20:10:29.222400", "MEAN_MOTION": 13.69356733, "ECCENTRICITY": 0.03312616, "INCLINATION": 74.1068, "RA_OF_ASC_NODE": 123.8676, "ARG_OF_PERICENTER": 225.0218, "MEAN_ANOMALY": 132.3614, "EPHEMERIS_TYPE": 0, "CLASSIFICATION_TYPE": "U", "NORAD_CAT_ID": 33917, "ELEMENT_SET_NO": 999, "REV_AT_EPOCH": 83721, "BSTAR": 0.0010641253, "MEAN_MOTION_DOT": 1.336e-05, "MEAN_MOTION_DDOT": 0}, "tle": {"line1": "1 33917U 93036DW  25345.84061600  .00001336  00000+0  10641-2 0  9994", "line2": "2 33917  74.1068 123.8676 0331261 225.0218 132.3614 13.69356733837217"}}, "geometry": {"type": "Point", "coordinates": [-59.851031720193056, 10.618701762958743]}}, {"type": "Feature", "properties": {"norad_id": 33920, "name": "COSMOS 2251 DEB", "group": "cosmos-2251-debris", "lat": 73.39188205056804, "lon": 46.01780576313603, "alt_km": 714.5435430606994, "timestamp": "2025-12-12T05:47:29.164413+00:00", "meta": {"OBJECT_NAME": "COSMOS 2251 DEB", "OBJECT_ID": "1993-036DZ", "EPOCH": "2025-12-11T22:46:20.794656", "MEAN_MOTION": 14.58254573, "ECCENTRICITY": 0.00382904, "INCLINATION": 74.0615, "RA_OF_ASC_NODE": 299.9305, "ARG_OF_PERICENTER": 306.5878, "MEAN_ANOMALY": 53.1766, "EPHEMERIS_TYPE": 0, "CLASSIFICATION_TYPE": "U", "NORAD_CAT_ID": 33920, "ELEMENT_SET_NO": 999, "REV_AT_EPOCH": 88103, "BSTAR": 0.002936695, "MEAN_MOTION_DOT": 0.00013703, "MEAN_MOTION_DDOT": 0}, "tle": {"line1": "1 33920U 93036DZ  25345.94885179  .00013703  00000+0  29367-2 0  9990", "line2": "2 33920  74.0615 299.9305 0038290 306.5878  53.1766 14.58254573881030"}}, "geometry": {"type": "Point", "coordinates": [46.01780576313603, 73.39188205056804]}}, {"type": "Feature", "properties": {"norad_id": 33922, "name": "COSMOS 2251 DEB", "group": "cosmos-2251-debris", "lat": -66.19313300112873, "lon": 9.115422816844264, "alt_km": 717.752270205594, "timestamp": "2025-12-12T05:47:29.164423+00:00", "meta": {"OBJECT_NAME": "COSMOS 2251 DEB", "OBJECT_ID": "1993-036EB", "EPOCH": "2025-12-11T22:43:59.164320", "MEAN_MOTION": 14.49502228, "ECCENTRICITY": 0.00232688, "INCLINATION": 74.0467, "RA_OF_ASC_NODE": 149.2491, "ARG_OF_PERICENTER": 259.9764, "MEAN_ANOMALY": 258.0846, "EPHEMERIS_TYPE": 0, "CLASSIFICATION_TYPE": "U", "NORAD_CAT_ID": 33922, "ELEMENT_SET_NO": 999, "REV_AT_EPOCH": 88566, "BSTAR": 0.00075078777, "MEAN_MOTION_DOT": 2.861e-05, "MEAN_MOTION_DDOT": 0}, "tle": {"line1": "1 33922U 93036EB  25345.94721255  .00002861  00000+0  75079-3 0  9991", "line2": "2 33922  74.0467 149.2491 0023268 259.9764 258.0846 14.49502228885665"}}, "geometry": {"type": "Point", "coordinates": [9.115422816844264, -66.19313300112873]}}, {"type": "Feature", "properties": {"norad_id": 33924, "name": "COSMOS 2251 DEB", "group": "cosmos-2251-debris", "lat": 3.8990227457675326, "lon": -87.87043438874046, "alt_km": 903.7533201366105, "timestamp": "2025-12-12T05:47:29.164433+00:00", "meta": {"OBJECT_NAME": "COSMOS 2251 DEB", "OBJECT_ID": "1993-036ED", "EPOCH": "2025-12-11T22:39:35.645184", "MEAN_MOTION": 13.50223143, "ECCENTRICITY": 0.04040433, "INCLINATION": 73.9135, "RA_OF_ASC_NODE": 271.4801, "ARG_OF_PERICENTER": 307.0717, "MEAN_ANOMALY": 49.4075, "EPHEMERIS_TYPE": 0, "CLASSIFICATION_TYPE": "U", "NORAD_CAT_ID": 33924, "ELEMENT_SET_NO": 999, "REV_AT_EPOCH": 82728, "BSTAR": 0.0013357727, "MEAN_MOTION_DOT": 1.393e-05, "MEAN_MOTION_DDOT": 0}, "tle": {"line1": "1 33924U 93036ED  25345.94416256  .00001393  00000+0  13358-2 0  9995", "line2": "2 33924  73.9135 271.4801 0404043 307.0717  49.4075 13.50223143827284"}}, "geometry": {"type": "Point", "coordinates": [-87.87043438874046, 3.8990227457675326]}}, {"type": "Feature", "properties": {"norad_id": 33928, "name": "COSMOS 2251 DEB", "group": "cosmos-2251-debris", "lat": 71.04922930397902, "lon": 176.39440943173005, "alt_km": 743.3443446725041, "timestamp": "2025-12-12T05:47:29.164444+00:00", "meta": {"OBJECT_NAME": "COSMOS 2251 DEB", "OBJECT_ID": "1993-036EH", "EPOCH": "2025-12-11T11:05:09.691008", "MEAN_MOTION": 14.47401628, "ECCENTRICITY": 0.00613942, "INCLINATION": 73.9261, "RA_OF_ASC_NODE": 54.9711, "ARG_OF_PERICENTER": 349.3553, "MEAN_ANOMALY": 10.63, "EPHEMERIS_TYPE": 0, "CLASSIFICATION_TYPE": "U", "NORAD_CAT_ID": 33928, "ELEMENT_SET_NO": 999, "REV_AT_EPOCH": 88626, "BSTAR": 0.00040177336, "MEAN_MOTION_DOT": 1.479e-05, "MEAN_MOTION_DDOT": 0}, "tle": {"line1": "1 33928U 93036EH  25345.46191772  .00001479  00000+0  40177-3 0  9994", "line2": "2 33928  73.9261  54.9711 0061394 349.3553  10.6300 14.47401628886264"}}, "geometry": {"type": "Point", "coordinates": [176.39440943173005, 71.04922930397902]}}, {"type": "Feature", "properties": {"norad_id": 33932, "name": "COSMOS 2251 DEB", "group": "cosmos-2251-debris", "lat": -66.25663093131968, "lon": 177.44040160208257, "alt_km": 789.0372222272372, "timestamp": "2025-12-12T05:47:29.164454+00:00", "meta": {"OBJECT_NAME": "COSMOS 2251 DEB", "OBJECT_ID": "1993-036EM", "EPOCH": "2025-12-11T23:36:59.714208", "MEAN_MOTION": 14.38754903, "ECCENTRICITY": 0.00352577, "INCLINATION": 74.0346, "RA_OF_ASC_NODE": 317.3113, "ARG_OF_PERICENTER": 33.7262, "MEAN_ANOMALY": 326.6125, "EPHEMERIS_TYPE": 0, "CLASSIFICATION_TYPE": "U", "NORAD_CAT_ID": 33932, "ELEMENT_SET_NO": 999, "REV_AT_EPOCH": 87987, "BSTAR": 0.00081287486, "MEAN_MOTION_DOT": 2.489e-05, "MEAN_MOTION_DDOT": 0}, "tle": {"line1": "1 33932U 93036EM  25345.98402447  .00002489  00000+0  81287-3 0  9999", "line2": "2 33932  74.0346 317.3113 0035257  33.7262 326.6125 14.38754903879878"}}, "geometry": {"type": "Point", "coordinates": [177.44040160208257, -66.25663093131968]}}, {"type": "Feature", "properties": {"norad_id": 33933, "name": "COSMOS 2251 DEB", "group": "cosmos-2251-debris", "lat": 63.98062602587927, "lon": -154.71046782170825, "alt_km": 735.2177894736506, "timestamp": "2025-12-12T05:47:29.164464+00:00", "meta": {"OBJECT_NAME": "COSMOS 2251 DEB", "OBJECT_ID": "1993-036EN", "EPOCH": "2025-12-11T22:34:57.923616", "MEAN_MOTION": 14.3348708, "ECCENTRICITY": 0.00707894, "INCLINATION": 74.0894, "RA_OF_ASC_NODE": 61.5924, "ARG_OF_PERICENTER": 70.2387, "MEAN_ANOMALY": 290.638, "EPHEMERIS_TYPE": 0, "CLASSIFICATION_TYPE": "U", "NORAD_CAT_ID": 33933, "ELEMENT_SET_NO": 999, "REV_AT_EPOCH": 87773, "BSTAR": 0.00043081533, "MEAN_MOTION_DOT": 1.199e-05, "MEAN_MOTION_DDOT": 0}, "tle": {"line1": "1 33933U 93036EN  25345.94094819  .00001199  00000+0  43082-3 0  9994", "line2": "2 33933  74.0894  61.5924 0070789  70.2387 290.6380 14.33487080877738"}}, "geometry": {"type": "Point", "coordinates": [-154.71046782170825, 63.98062602587927]}}, {"type": "Feature", "properties": {"norad_id": 33934, "name": "COSMOS 2251 DEB", "group": "cosmos-2251-debris", "lat": -0.8466327131333349, "lon": -78.23609057700685, "alt_km": 690.893472000278, "timestamp": "2025-12-12T05:47:29.164474+00:00", "meta": {"OBJECT_NAME": "COSMOS 2251 DEB", "OBJECT_ID": "1993-036EP", "EPOCH": "2025-12-12T00:01:40.717344", "MEAN_MOTION": 14.59099311, "ECCENTRICITY": 0.00156825, "INCLINATION": 74.0378, "RA_OF_ASC_NODE": 101.9789, "ARG_OF_PERICENTER": 225.7407, "MEAN_ANOMALY": 134.2472, "EPHEMERIS_TYPE": 0, "CLASSIFICATION_TYPE": "U", "NORAD_CAT_ID": 33934, "ELEMENT_SET_NO": 999, "REV_AT_EPOCH": 88728, "BSTAR": 0.0015462675, "MEAN_MOTION_DOT": 7.267e-05, "MEAN_MOTION_DDOT": 0}, "tle": {"line1": "1 33934U 93036EP  25346.00116571  .00007267  00000+0  15463-2 0  9996", "line2": "2 33934  74.0378 101.9789 0015682 225.7407 134.2472 14.59099311887285"}}, "geometry": {"type": "Point", "coordinates": [-78.23609057700685, -0.8466327131333349]}}, {"type": "Feature", "properties": {"norad_id": 33936, "name": "COSMOS 2251 DEB", "group": "cosmos-2251-debris", "lat": 67.16646093222093, "lon": 175.54406972650514, "alt_km": 684.503075960929, "timestamp": "2025-12-12T05:47:29.164484+00:00", "meta": {"OBJECT_NAME": "COSMOS 2251 DEB", "OBJECT_ID": "1993-036ER", "EPOCH": "2025-12-11T14:30:21.093984", "MEAN_MOTION": 14.60260184, "ECCENTRICITY": 0.00276189, "INCLINATION": 74.0188, "RA_OF_ASC_NODE": 39.6536, "ARG_OF_PERICENTER": 195.3388, "MEAN_ANOMALY": 164.6944, "EPHEMERIS_TYPE": 0, "CLASSIFICATION_TYPE": "U", "NORAD_CAT_ID": 33936, "ELEMENT_SET_NO": 999, "REV_AT_EPOCH": 88873, "BSTAR": 0.0010833408, "MEAN_MOTION_DOT": 5.23e-05, "MEAN_MOTION_DDOT": 0}, "tle": {"line1": "1 33936U 93036ER  25345.60441081  .00005230  00000+0  10833-2 0  9994", "line2": "2 33936  74.0188  39.6536 0027618 195.3388 164.6944 14.60260184888737"}}, "geometry": {"type": "Point", "coordinates": [175.54406972650514, 67.16646093222093]}}, {"type": "Feature", "properties": {"norad_id": 33938, "name": "COSMOS 2251 DEB", "group": "cosmos-2251-debris", "lat": -14.746242048877093, "lon": -156.21129201209706, "alt_km": 733.4980816538373, "timestamp": "2025-12-12T05:47:29.164494+00:00", "meta": {"OBJECT_NAME": "COSMOS 2251 DEB", "OBJECT_ID": "1993-036ET", "EPOCH": "2025-12-11T23:44:54.976416", "MEAN_MOTION": 14.46790031, "ECCENTRICITY": 0.00168558, "INCLINATION": 74.0451, "RA_OF_ASC_NODE": 208.577, "ARG_OF_PERICENTER": 290.8007, "MEAN_ANOMALY": 182.9314, "EPHEMERIS_TYPE": 0, "CLASSIFICATION_TYPE": "U", "NORAD_CAT_ID": 33938, "ELEMENT_SET_NO": 999, "REV_AT_EPOCH": 88389, "BSTAR": 0.00067361041, "MEAN_MOTION_DOT": 2.417e-05, "MEAN_MOTION_DDOT": 0}, "tle": {"line1": "1 33938U 93036ET  25345.98952519  .00002417  00000+0  67361-3 0  9993", "line2": "2 33938  74.0451 208.5770 0016855 290.8007 182.9314 14.46790031883898"}}, "geometry": {"type": "Point", "coordinates": [-156.21129201209706, -14.746242048877093]}}]}